0 THORAD AGENA D DEB
1 05359U 70025KQ  13283.14737590  .00000469  00000-0  60501-3 0  7014
2 05359 099.9951 351.3428 0003265 297.5837 091.9334 13.68371704158664
0 THORAD AGENA D DEB
1 05359U 70025KQ  13284.17636061  .00000510  00000-0  65249-3 0  7021
2 05359 099.9951 352.4076 0003357 294.1496 121.6791 13.68372570158807
0 THORAD AGENA D DEB
1 05359U 70025KQ  13286.15041642  .00000505  00000-0  64700-3 0  7032
2 05359 099.9949 354.4506 0003449 287.9925 127.3162 13.68374700159075
0 THORAD AGENA D DEB
1 05359U 70025KQ  13287.17417199  .00000540  00000-0  68692-3 0  7043
2 05359 099.9947 355.5101 0003519 284.8911 130.9952 13.68375603159211
0 THORAD AGENA D DEB
1 05359U 70025KQ  13289.14819024  .00000613  00000-0  77263-3 0  7051
2 05359 099.9942 357.5531 0003629 279.1749 136.0304 13.68379122159480
0 THORAD AGENA D DEB
1 05359U 70025KQ  13290.16640218  .00000586  00000-0  74068-3 0  7062
2 05359 099.9940 358.6068 0003727 276.3637 112.1393 13.68380182159626
0 THORAD AGENA D DEB
1 05359U 70025KQ  13292.14080149  .00000614  00000-0  77362-3 0  7076
2 05359 099.9937 000.6500 0003838 271.0086 118.7205 13.68382723159896
0 THORAD AGENA D DEB
1 05359U 70025KQ  13293.16976793  .00000642  00000-0  80606-3 0  7085
2 05359 099.9936 001.7147 0003923 268.3499 147.6437 13.68384172160032
0 THORAD AGENA D DEB
1 05359U 70025KQ  13294.65352300  .00000644  00000-0  80940-3 0  7096
2 05359 099.9936 003.2500 0004019 264.4229 257.0612 13.68386389160243
0 THORAD AGENA D DEB
1 05359U 70025KQ  13296.16256097  .00000640  00000-0  80421-3 0  7102
2 05359 099.9937 004.8114 0004122 260.7151 130.7555 13.68388697160449
